0 CLUSTER II-FM8
1 26464U 00045B   13282.54267697  .00000000  00000-0  10000-3 0  9188
2 26464 135.9236 312.7519 7733195 127.1420 330.8466 00.44218437 47467
0 CLUSTER II-FM8
1 26464U 00045B   13282.73163032  .00001563  00000-0  00000+0 0  9211
2 26464 135.9586 312.7111 7735881 127.1260 000.8869 00.44224787 47465
0 CLUSTER II-FM8
1 26464U 00045B   13284.99297484  .00001670  00000-0  00000+0 0  9220
2 26464 135.9299 312.8048 7732497 127.2114 000.8504 00.44221028 47477
0 CLUSTER II-FM8
1 26464U 00045B   13289.32388135  .00000000  00000-0  10000-3 0  9261
2 26464 135.8015 313.0619 7718245 127.3989 330.3338 00.44218999 47496
0 CLUSTER II-FM8
1 26464U 00045B   13289.32421925  .00000000  00000-0  10000-3 0  9277
2 26464 135.8692 312.9682 7718116 127.3297 330.3953 00.44218929 47490
0 CLUSTER II-FM8
1 26464U 00045B   13289.51508879  .00001813  00000-0  00000+0 0  9247
2 26464 135.8715 313.0057 7716936 127.3724 000.6794 00.44215121 47498
0 CLUSTER II-FM8
1 26464U 00045B   13291.77603742  .00001585  00000-0  00000+0 0  9261
2 26464 135.8218 313.1288 7707826 127.4713 000.9678 00.44262502 47501
0 CLUSTER II-FM8
1 26464U 00045B   13291.77762355  .00001587  00000-0  00000+0 0  9258
2 26464 135.8223 313.1289 7709742 127.4606 000.8964 00.44220187 47508
0 CLUSTER II-FM8
1 26464U 00045B   13296.29340199  .00001468  00000-0  00000+0 0  9278
2 26464 135.7947 313.2343 7695034 127.5434 001.2530 00.44282874 47527
